{
"type": "FeatureCollection",
"name": "C:\\Users\\HPZBOOK15G6\\Desktop\\yemen_1980_map\\footprints\\footprint_1964.geojson",
"features": [
{ "type": "Feature", "properties": { "FID": "0", "Name": "", "KML_STYLE": "__managed_style_00028D49D43EB79BDDB9", "KML_FOLDER": "Converted_Graphics_44" }, "geometry": { "type": "Polygon", "coordinates": [ [ [ 46.396734409139803, 27.318139904295069, -999999.0 ], [ 46.396734409139803, 27.318139904295155, -999999.0 ], [ 46.209913353921991, 27.3510522279376, -999999.0 ], [ 43.578174002580681, 12.412443577316029, -999999.0 ], [ 43.764995057798906, 12.379531253673999, -999999.0 ], [ 43.764995057799077, 12.379531253673999, -999999.0 ], [ 46.396734409139803, 27.318139904295069, -999999.0 ] ] ] } },
{ "type": "Feature", "properties": { "FID": "0", "Name": "", "KML_STYLE": "__managed_style_00028D49D43EB79BDDB9", "KML_FOLDER": "Converted_Graphics_7" }, "geometry": { "type": "Polygon", "coordinates": [ [ [ 43.464611604696188, 12.84603657590878, -999999.0 ], [ 44.386940262660403, 15.844405303776449, -999999.0 ], [ 44.529707923010221, 16.26794936281425, -999999.0 ], [ 44.934216294001367, 17.619483214125861, -999999.0 ], [ 44.653439895313397, 17.69086704430077, -999999.0 ], [ 44.376034399717007, 16.819191162498271, -999999.0 ], [ 44.147606143157297, 16.053004718620912, -999999.0 ], [ 43.987785678932198, 15.543046567387931, -999999.0 ], [ 43.855725593108623, 15.11117439482973, -999999.0 ], [ 43.577011393959083, 14.200217577589401, -999999.0 ], [ 43.352152328908119, 13.454256552261601, -999999.0 ], [ 43.179076283996601, 12.950732860165465, -999999.0 ], [ 43.179076283996601, 12.950732860165303, -999999.0 ], [ 43.464611604696188, 12.84603657590878, -999999.0 ] ] ] } }
]
}
