{
"type": "FeatureCollection",
"name": "C:\\Users\\HPZBOOK15G6\\Desktop\\yemen_1980_map\\footprints\\footprint_1982-05-23.geojson",
"features": [
{ "type": "Feature", "properties": { "Entity_ID": "D3C1217-100109A062", "Acquisition_Date": "1982\/05\/23", "Mission": "1217-1", "Frame_Number": "62", "Image_Type": "Black and White", "Camera": "A", "Camera_Resolution": "2 to 4 feet", "Film_Type": "6", "Generation": "2", "Polarity": "Negative", "Operations_Number": "109", "Download_Available": "", "Center_Latitude": "17&deg;53'49.20\"N", "Center_Longitude": "48&deg;27'18\"E", "NW_Corner_Lat": "18&deg;11'09.60\"N", "NW_Corner_Long": "46&deg;45'28.80\"E", "NE_Corner_Lat": "17&deg;50'16.80\"N", "NE_Corner_Long": "50&deg;10'55.20\"E", "SE_Corner_Lat": "17&deg;36'43.20\"N", "SE_Corner_Long": "50&deg;06'43.20\"E", "SW_Corner_Lat": "17&deg;56'52.80\"N", "SW_Corner_Long": "46&deg;46'48\"E", "Center_Latitude_dec": "17.897", "Center_Longitude_dec": "48.455", "NW_Corner_Lat_dec": "18.186", "NW_Corner_Long_dec": "46.758", "NE_Corner_Lat_dec": "17.838", "NE_Corner_Long_dec": "50.182", "SE_Corner_Lat_dec": "17.612", "SE_Corner_Long_dec": "50.112", "SW_Corner_Lat_dec": "17.948", "SW_Corner_Long_dec": "46.78", "KML_STYLE": "PolyStyle00", "KML_FOLDER": "_Polygons_", "Snippet": "D3C1217-100109A062" }, "geometry": { "type": "Polygon", "coordinates": [ [ [ 46.78, 17.948, -999999.0 ], [ 50.112, 17.612, -999999.0 ], [ 50.182, 17.838, -999999.0 ], [ 46.758000000000422, 18.186, -999999.0 ], [ 46.758, 18.186, -999999.0 ], [ 46.78, 17.948, -999999.0 ] ] ] } },
{ "type": "Feature", "properties": { "Entity_ID": "D3C1217-100109A063", "Acquisition_Date": "1982\/05\/23", "Mission": "1217-1", "Frame_Number": "63", "Image_Type": "Black and White", "Camera": "A", "Camera_Resolution": "2 to 4 feet", "Film_Type": "6", "Generation": "2", "Polarity": "Negative", "Operations_Number": "109", "Download_Available": "", "Center_Latitude": "17&deg;44'34.80\"N", "Center_Longitude": "48&deg;25'37.20\"E", "NW_Corner_Lat": "18&deg;01'55.20\"N", "NW_Corner_Long": "46&deg;43'51.60\"E", "NE_Corner_Lat": "17&deg;41'02.40\"N", "NE_Corner_Long": "50&deg;09'10.80\"E", "SE_Corner_Lat": "17&deg;27'28.80\"N", "SE_Corner_Long": "50&deg;04'58.80\"E", "SW_Corner_Lat": "17&deg;47'38.40\"N", "SW_Corner_Long": "46&deg;45'10.80\"E", "Center_Latitude_dec": "17.743", "Center_Longitude_dec": "48.427", "NW_Corner_Lat_dec": "18.032", "NW_Corner_Long_dec": "46.731", "NE_Corner_Lat_dec": "17.684", "NE_Corner_Long_dec": "50.153", "SE_Corner_Lat_dec": "17.458", "SE_Corner_Long_dec": "50.083", "SW_Corner_Lat_dec": "17.794", "SW_Corner_Long_dec": "46.753", "KML_STYLE": "PolyStyle00", "KML_FOLDER": "_Polygons_", "Snippet": "D3C1217-100109A063" }, "geometry": { "type": "Polygon", "coordinates": [ [ [ 46.753, 17.794 ], [ 50.083, 17.458 ], [ 50.153, 17.684 ], [ 46.731, 18.032 ], [ 46.753, 17.794 ] ] ] } },
{ "type": "Feature", "properties": { "Entity_ID": "D3C1217-100109A064", "Acquisition_Date": "1982\/05\/23", "Mission": "1217-1", "Frame_Number": "64", "Image_Type": "Black and White", "Camera": "A", "Camera_Resolution": "2 to 4 feet", "Film_Type": "6", "Generation": "2", "Polarity": "Negative", "Operations_Number": "109", "Download_Available": "", "Center_Latitude": "17&deg;35'20.40\"N", "Center_Longitude": "48&deg;23'49.20\"E", "NW_Corner_Lat": "17&deg;52'40.80\"N", "NW_Corner_Long": "46&deg;42'10.80\"E", "NE_Corner_Lat": "17&deg;31'48\"N", "NE_Corner_Long": "50&deg;07'26.40\"E", "SE_Corner_Lat": "17&deg;18'14.40\"N", "SE_Corner_Long": "50&deg;03'14.40\"E", "SW_Corner_Lat": "17&deg;38'20.40\"N", "SW_Corner_Long": "46&deg;43'30\"E", "Center_Latitude_dec": "17.589", "Center_Longitude_dec": "48.397", "NW_Corner_Lat_dec": "17.878", "NW_Corner_Long_dec": "46.703", "NE_Corner_Lat_dec": "17.53", "NE_Corner_Long_dec": "50.124", "SE_Corner_Lat_dec": "17.304", "SE_Corner_Long_dec": "50.054", "SW_Corner_Lat_dec": "17.639", "SW_Corner_Long_dec": "46.725", "KML_STYLE": "PolyStyle00", "KML_FOLDER": "_Polygons_", "Snippet": "D3C1217-100109A064" }, "geometry": { "type": "Polygon", "coordinates": [ [ [ 46.725, 17.639 ], [ 50.054, 17.304 ], [ 50.124, 17.53 ], [ 46.703, 17.878 ], [ 46.725, 17.639 ] ] ] } },
{ "type": "Feature", "properties": { "Entity_ID": "D3C1217-100109A065", "Acquisition_Date": "1982\/05\/23", "Mission": "1217-1", "Frame_Number": "65", "Image_Type": "Black and White", "Camera": "A", "Camera_Resolution": "2 to 4 feet", "Film_Type": "6", "Generation": "2", "Polarity": "Negative", "Operations_Number": "109", "Download_Available": "", "Center_Latitude": "17&deg;26'02.40\"N", "Center_Longitude": "48&deg;22'15.60\"E", "NW_Corner_Lat": "17&deg;43'22.80\"N", "NW_Corner_Long": "46&deg;40'33.60\"E", "NE_Corner_Lat": "17&deg;22'33.60\"N", "NE_Corner_Long": "50&deg;05'42\"E", "SE_Corner_Lat": "17&deg;08'56.40\"N", "SE_Corner_Long": "50&deg;01'26.40\"E", "SW_Corner_Lat": "17&deg;29'06\"N", "SW_Corner_Long": "46&deg;41'52.80\"E", "Center_Latitude_dec": "17.434", "Center_Longitude_dec": "48.371", "NW_Corner_Lat_dec": "17.723", "NW_Corner_Long_dec": "46.676", "NE_Corner_Lat_dec": "17.376", "NE_Corner_Long_dec": "50.095", "SE_Corner_Lat_dec": "17.149", "SE_Corner_Long_dec": "50.024", "SW_Corner_Lat_dec": "17.485", "SW_Corner_Long_dec": "46.698", "KML_STYLE": "PolyStyle00", "KML_FOLDER": "_Polygons_", "Snippet": "D3C1217-100109A065" }, "geometry": { "type": "Polygon", "coordinates": [ [ [ 46.698, 17.485 ], [ 50.024, 17.149 ], [ 50.095, 17.376 ], [ 46.676, 17.723 ], [ 46.698, 17.485 ] ] ] } },
{ "type": "Feature", "properties": { "Entity_ID": "D3C1217-100109A066", "Acquisition_Date": "1982\/05\/23", "Mission": "1217-1", "Frame_Number": "66", "Image_Type": "Black and White", "Camera": "A", "Camera_Resolution": "2 to 4 feet", "Film_Type": "6", "Generation": "2", "Polarity": "Negative", "Operations_Number": "109", "Download_Available": "", "Center_Latitude": "17&deg;16'48\"N", "Center_Longitude": "48&deg;20'31.20\"E", "NW_Corner_Lat": "17&deg;34'08.40\"N", "NW_Corner_Long": "46&deg;38'52.80\"E", "NE_Corner_Lat": "17&deg;13'19.20\"N", "NE_Corner_Long": "50&deg;03'54\"E", "SE_Corner_Lat": "16&deg;59'42\"N", "SE_Corner_Long": "49&deg;59'42\"E", "SW_Corner_Lat": "17&deg;19'51.60\"N", "SW_Corner_Long": "46&deg;40'12\"E", "Center_Latitude_dec": "17.28", "Center_Longitude_dec": "48.342", "NW_Corner_Lat_dec": "17.569", "NW_Corner_Long_dec": "46.648", "NE_Corner_Lat_dec": "17.222", "NE_Corner_Long_dec": "50.065", "SE_Corner_Lat_dec": "16.995", "SE_Corner_Long_dec": "49.995", "SW_Corner_Lat_dec": "17.331", "SW_Corner_Long_dec": "46.67", "KML_STYLE": "PolyStyle00", "KML_FOLDER": "_Polygons_", "Snippet": "D3C1217-100109A066" }, "geometry": { "type": "Polygon", "coordinates": [ [ [ 46.67, 17.331 ], [ 49.995, 16.995 ], [ 50.065, 17.222 ], [ 46.648, 17.569 ], [ 46.67, 17.331 ] ] ] } },
{ "type": "Feature", "properties": { "Entity_ID": "D3C1217-100109A067", "Acquisition_Date": "1982\/05\/23", "Mission": "1217-1", "Frame_Number": "67", "Image_Type": "Black and White", "Camera": "A", "Camera_Resolution": "2 to 4 feet", "Film_Type": "6", "Generation": "2", "Polarity": "Negative", "Operations_Number": "109", "Download_Available": "", "Center_Latitude": "17&deg;07'33.60\"N", "Center_Longitude": "48&deg;18'46.80\"E", "NW_Corner_Lat": "17&deg;24'54\"N", "NW_Corner_Long": "46&deg;37'15.60\"E", "NE_Corner_Lat": "17&deg;04'04.80\"N", "NE_Corner_Long": "50&deg;02'13.20\"E", "SE_Corner_Lat": "16&deg;50'27.60\"N", "SE_Corner_Long": "49&deg;57'57.60\"E", "SW_Corner_Lat": "17&deg;10'33.60\"N", "SW_Corner_Long": "46&deg;38'34.80\"E", "Center_Latitude_dec": "17.126", "Center_Longitude_dec": "48.313", "NW_Corner_Lat_dec": "17.415", "NW_Corner_Long_dec": "46.621", "NE_Corner_Lat_dec": "17.068", "NE_Corner_Long_dec": "50.037", "SE_Corner_Lat_dec": "16.841", "SE_Corner_Long_dec": "49.966", "SW_Corner_Lat_dec": "17.176", "SW_Corner_Long_dec": "46.643", "KML_STYLE": "PolyStyle00", "KML_FOLDER": "_Polygons_", "Snippet": "D3C1217-100109A067" }, "geometry": { "type": "Polygon", "coordinates": [ [ [ 46.643, 17.176 ], [ 49.966, 16.841 ], [ 50.037, 17.068 ], [ 46.621, 17.415 ], [ 46.643, 17.176 ] ] ] } },
{ "type": "Feature", "properties": { "Entity_ID": "D3C1217-100109A068", "Acquisition_Date": "1982\/05\/23", "Mission": "1217-1", "Frame_Number": "68", "Image_Type": "Black and White", "Camera": "A", "Camera_Resolution": "2 to 4 feet", "Film_Type": "6", "Generation": "2", "Polarity": "Negative", "Operations_Number": "109", "Download_Available": "", "Center_Latitude": "16&deg;58'19.20\"N", "Center_Longitude": "48&deg;17'09.60\"E", "NW_Corner_Lat": "17&deg;15'39.60\"N", "NW_Corner_Long": "46&deg;35'38.40\"E", "NE_Corner_Lat": "16&deg;54'50.40\"N", "NE_Corner_Long": "50&deg;00'28.80\"E", "SE_Corner_Lat": "16&deg;41'13.20\"N", "SE_Corner_Long": "49&deg;56'16.80\"E", "SW_Corner_Lat": "17&deg;01'19.20\"N", "SW_Corner_Long": "46&deg;36'57.60\"E", "Center_Latitude_dec": "16.972", "Center_Longitude_dec": "48.286", "NW_Corner_Lat_dec": "17.261", "NW_Corner_Long_dec": "46.594", "NE_Corner_Lat_dec": "16.914", "NE_Corner_Long_dec": "50.008", "SE_Corner_Lat_dec": "16.687", "SE_Corner_Long_dec": "49.938", "SW_Corner_Lat_dec": "17.022", "SW_Corner_Long_dec": "46.616", "KML_STYLE": "PolyStyle00", "KML_FOLDER": "_Polygons_", "Snippet": "D3C1217-100109A068" }, "geometry": { "type": "Polygon", "coordinates": [ [ [ 46.616, 17.022 ], [ 49.938, 16.687 ], [ 50.008, 16.914 ], [ 46.594, 17.261 ], [ 46.616, 17.022 ] ] ] } },
{ "type": "Feature", "properties": { "Entity_ID": "D3C1217-100109A069", "Acquisition_Date": "1982\/05\/23", "Mission": "1217-1", "Frame_Number": "69", "Image_Type": "Black and White", "Camera": "A", "Camera_Resolution": "2 to 4 feet", "Film_Type": "6", "Generation": "2", "Polarity": "Negative", "Operations_Number": "109", "Download_Available": "", "Center_Latitude": "16&deg;49'01.20\"N", "Center_Longitude": "48&deg;15'28.80\"E", "NW_Corner_Lat": "17&deg;06'21.60\"N", "NW_Corner_Long": "46&deg;34'01.20\"E", "NE_Corner_Lat": "16&deg;45'36\"N", "NE_Corner_Long": "49&deg;58'44.40\"E", "SE_Corner_Lat": "16&deg;31'58.80\"N", "SE_Corner_Long": "49&deg;54'32.40\"E", "SW_Corner_Lat": "16&deg;52'01.20\"N", "SW_Corner_Long": "46&deg;35'16.80\"E", "Center_Latitude_dec": "16.817", "Center_Longitude_dec": "48.258", "NW_Corner_Lat_dec": "17.106", "NW_Corner_Long_dec": "46.567", "NE_Corner_Lat_dec": "16.76", "NE_Corner_Long_dec": "49.979", "SE_Corner_Lat_dec": "16.533", "SE_Corner_Long_dec": "49.909", "SW_Corner_Lat_dec": "16.867", "SW_Corner_Long_dec": "46.588", "KML_STYLE": "PolyStyle00", "KML_FOLDER": "_Polygons_", "Snippet": "D3C1217-100109A069" }, "geometry": { "type": "Polygon", "coordinates": [ [ [ 46.588, 16.867 ], [ 49.909, 16.533 ], [ 49.979, 16.76 ], [ 46.567, 17.106 ], [ 46.588, 16.867 ] ] ] } },
{ "type": "Feature", "properties": { "Entity_ID": "D3C1217-100109A070", "Acquisition_Date": "1982\/05\/23", "Mission": "1217-1", "Frame_Number": "70", "Image_Type": "Black and White", "Camera": "A", "Camera_Resolution": "2 to 4 feet", "Film_Type": "6", "Generation": "2", "Polarity": "Negative", "Operations_Number": "109", "Download_Available": "", "Center_Latitude": "16&deg;39'43.20\"N", "Center_Longitude": "48&deg;13'48\"E", "NW_Corner_Lat": "16&deg;57'03.60\"N", "NW_Corner_Long": "46&deg;32'20.40\"E", "NE_Corner_Lat": "16&deg;36'18\"N", "NE_Corner_Long": "49&deg;57'00\"E", "SE_Corner_Lat": "16&deg;22'40.80\"N", "SE_Corner_Long": "49&deg;52'48\"E", "SW_Corner_Lat": "16&deg;42'43.20\"N", "SW_Corner_Long": "46&deg;33'39.60\"E", "Center_Latitude_dec": "16.662", "Center_Longitude_dec": "48.23", "NW_Corner_Lat_dec": "16.951", "NW_Corner_Long_dec": "46.539", "NE_Corner_Lat_dec": "16.605", "NE_Corner_Long_dec": "49.95", "SE_Corner_Lat_dec": "16.378", "SE_Corner_Long_dec": "49.88", "SW_Corner_Lat_dec": "16.712", "SW_Corner_Long_dec": "46.561", "KML_STYLE": "PolyStyle00", "KML_FOLDER": "_Polygons_", "Snippet": "D3C1217-100109A070" }, "geometry": { "type": "Polygon", "coordinates": [ [ [ 46.561, 16.712 ], [ 49.88, 16.378 ], [ 49.95, 16.605 ], [ 46.539, 16.951 ], [ 46.561, 16.712 ] ] ] } },
{ "type": "Feature", "properties": { "Entity_ID": "D3C1217-100109A071", "Acquisition_Date": "1982\/05\/23", "Mission": "1217-1", "Frame_Number": "71", "Image_Type": "Black and White", "Camera": "A", "Camera_Resolution": "2 to 4 feet", "Film_Type": "6", "Generation": "2", "Polarity": "Negative", "Operations_Number": "109", "Download_Available": "", "Center_Latitude": "16&deg;30'21.60\"N", "Center_Longitude": "48&deg;12'07.20\"E", "NW_Corner_Lat": "16&deg;47'42\"N", "NW_Corner_Long": "46&deg;30'43.20\"E", "NE_Corner_Lat": "16&deg;27'00\"N", "NE_Corner_Long": "49&deg;55'15.60\"E", "SE_Corner_Lat": "16&deg;13'19.20\"N", "SE_Corner_Long": "49&deg;51'03.60\"E", "SW_Corner_Lat": "16&deg;33'21.60\"N", "SW_Corner_Long": "46&deg;32'02.40\"E", "Center_Latitude_dec": "16.506", "Center_Longitude_dec": "48.202", "NW_Corner_Lat_dec": "16.795", "NW_Corner_Long_dec": "46.512", "NE_Corner_Lat_dec": "16.45", "NE_Corner_Long_dec": "49.921", "SE_Corner_Lat_dec": "16.222", "SE_Corner_Long_dec": "49.851", "SW_Corner_Lat_dec": "16.556", "SW_Corner_Long_dec": "46.534", "KML_STYLE": "PolyStyle00", "KML_FOLDER": "_Polygons_", "Snippet": "D3C1217-100109A071" }, "geometry": { "type": "Polygon", "coordinates": [ [ [ 46.534, 16.556 ], [ 49.851, 16.222 ], [ 49.921, 16.45 ], [ 46.512, 16.795 ], [ 46.534, 16.556 ] ] ] } },
{ "type": "Feature", "properties": { "Entity_ID": "D3C1217-100109A072", "Acquisition_Date": "1982\/05\/23", "Mission": "1217-1", "Frame_Number": "72", "Image_Type": "Black and White", "Camera": "A", "Camera_Resolution": "2 to 4 feet", "Film_Type": "6", "Generation": "2", "Polarity": "Negative", "Operations_Number": "109", "Download_Available": "", "Center_Latitude": "16&deg;21'00\"N", "Center_Longitude": "48&deg;10'26.40\"E", "NW_Corner_Lat": "16&deg;38'20.40\"N", "NW_Corner_Long": "46&deg;29'02.40\"E", "NE_Corner_Lat": "16&deg;17'38.40\"N", "NE_Corner_Long": "49&deg;53'31.20\"E", "SE_Corner_Lat": "16&deg;03'57.60\"N", "SE_Corner_Long": "49&deg;49'19.20\"E", "SW_Corner_Lat": "16&deg;24'00\"N", "SW_Corner_Long": "46&deg;30'21.60\"E", "Center_Latitude_dec": "16.35", "Center_Longitude_dec": "48.174", "NW_Corner_Lat_dec": "16.639", "NW_Corner_Long_dec": "46.484", "NE_Corner_Lat_dec": "16.294", "NE_Corner_Long_dec": "49.892", "SE_Corner_Lat_dec": "16.066", "SE_Corner_Long_dec": "49.822", "SW_Corner_Lat_dec": "16.4", "SW_Corner_Long_dec": "46.506", "KML_STYLE": "PolyStyle00", "KML_FOLDER": "_Polygons_", "Snippet": "D3C1217-100109A072" }, "geometry": { "type": "Polygon", "coordinates": [ [ [ 46.506, 16.4 ], [ 49.822, 16.066 ], [ 49.892, 16.294 ], [ 46.484, 16.639 ], [ 46.506, 16.4 ] ] ] } },
{ "type": "Feature", "properties": { "Entity_ID": "D3C1217-100109A073", "Acquisition_Date": "1982\/05\/23", "Mission": "1217-1", "Frame_Number": "73", "Image_Type": "Black and White", "Camera": "A", "Camera_Resolution": "2 to 4 feet", "Film_Type": "6", "Generation": "2", "Polarity": "Negative", "Operations_Number": "109", "Download_Available": "", "Center_Latitude": "16&deg;11'42\"N", "Center_Longitude": "48&deg;08'45.60\"E", "NW_Corner_Lat": "16&deg;28'58.80\"N", "NW_Corner_Long": "46&deg;27'25.20\"E", "NE_Corner_Lat": "16&deg;08'20.40\"N", "NE_Corner_Long": "49&deg;51'46.80\"E", "SE_Corner_Lat": "15&deg;54'39.60\"N", "SE_Corner_Long": "49&deg;47'34.80\"E", "SW_Corner_Lat": "16&deg;14'38.40\"N", "SW_Corner_Long": "46&deg;28'40.80\"E", "Center_Latitude_dec": "16.195", "Center_Longitude_dec": "48.146", "NW_Corner_Lat_dec": "16.483", "NW_Corner_Long_dec": "46.457", "NE_Corner_Lat_dec": "16.139", "NE_Corner_Long_dec": "49.863", "SE_Corner_Lat_dec": "15.911", "SE_Corner_Long_dec": "49.793", "SW_Corner_Lat_dec": "16.244", "SW_Corner_Long_dec": "46.478", "KML_STYLE": "PolyStyle00", "KML_FOLDER": "_Polygons_", "Snippet": "D3C1217-100109A073" }, "geometry": { "type": "Polygon", "coordinates": [ [ [ 46.478, 16.244 ], [ 49.793, 15.911 ], [ 49.863, 16.139 ], [ 46.457, 16.483 ], [ 46.478, 16.244 ] ] ] } },
{ "type": "Feature", "properties": { "Entity_ID": "D3C1217-100109A074", "Acquisition_Date": "1982\/05\/23", "Mission": "1217-1", "Frame_Number": "74", "Image_Type": "Black and White", "Camera": "A", "Camera_Resolution": "2 to 4 feet", "Film_Type": "6", "Generation": "2", "Polarity": "Negative", "Operations_Number": "109", "Download_Available": "1", "Center_Latitude": "16&deg;02'20.40\"N", "Center_Longitude": "48&deg;07'01.20\"E", "NW_Corner_Lat": "16&deg;19'40.80\"N", "NW_Corner_Long": "46&deg;25'44.40\"E", "NE_Corner_Lat": "15&deg;58'58.80\"N", "NE_Corner_Long": "49&deg;50'02.40\"E", "SE_Corner_Lat": "15&deg;45'18\"N", "SE_Corner_Long": "49&deg;45'50.40\"E", "SW_Corner_Lat": "16&deg;05'20.40\"N", "SW_Corner_Long": "46&deg;27'03.60\"E", "Center_Latitude_dec": "16.039", "Center_Longitude_dec": "48.117", "NW_Corner_Lat_dec": "16.328", "NW_Corner_Long_dec": "46.429", "NE_Corner_Lat_dec": "15.983", "NE_Corner_Long_dec": "49.834", "SE_Corner_Lat_dec": "15.755", "SE_Corner_Long_dec": "49.764", "SW_Corner_Lat_dec": "16.089", "SW_Corner_Long_dec": "46.451", "KML_STYLE": "PolyStyle00", "KML_FOLDER": "_Polygons_", "Snippet": "D3C1217-100109A074" }, "geometry": { "type": "Polygon", "coordinates": [ [ [ 46.451, 16.089 ], [ 49.764, 15.755 ], [ 49.834, 15.983 ], [ 46.429, 16.328 ], [ 46.451, 16.089 ] ] ] } },
{ "type": "Feature", "properties": { "Entity_ID": "D3C1217-100109A075", "Acquisition_Date": "1982\/05\/23", "Mission": "1217-1", "Frame_Number": "75", "Image_Type": "Black and White", "Camera": "A", "Camera_Resolution": "2 to 4 feet", "Film_Type": "6", "Generation": "2", "Polarity": "Negative", "Operations_Number": "109", "Download_Available": "", "Center_Latitude": "15&deg;53'02.40\"N", "Center_Longitude": "48&deg;05'16.80\"E", "NW_Corner_Lat": "16&deg;10'19.20\"N", "NW_Corner_Long": "46&deg;24'03.60\"E", "NE_Corner_Lat": "15&deg;49'40.80\"N", "NE_Corner_Long": "49&deg;48'18\"E", "SE_Corner_Lat": "15&deg;36'00\"N", "SE_Corner_Long": "49&deg;44'06\"E", "SW_Corner_Lat": "15&deg;55'58.80\"N", "SW_Corner_Long": "46&deg;25'22.80\"E", "Center_Latitude_dec": "15.884", "Center_Longitude_dec": "48.088", "NW_Corner_Lat_dec": "16.172", "NW_Corner_Long_dec": "46.401", "NE_Corner_Lat_dec": "15.828", "NE_Corner_Long_dec": "49.805", "SE_Corner_Lat_dec": "15.6", "SE_Corner_Long_dec": "49.735", "SW_Corner_Lat_dec": "15.933", "SW_Corner_Long_dec": "46.423", "KML_STYLE": "PolyStyle00", "KML_FOLDER": "_Polygons_", "Snippet": "D3C1217-100109A075" }, "geometry": { "type": "Polygon", "coordinates": [ [ [ 46.423, 15.933 ], [ 49.735, 15.6 ], [ 49.805, 15.828 ], [ 46.401, 16.172 ], [ 46.423, 15.933 ] ] ] } },
{ "type": "Feature", "properties": { "Entity_ID": "D3C1217-100109A076", "Acquisition_Date": "1982\/05\/23", "Mission": "1217-1", "Frame_Number": "76", "Image_Type": "Black and White", "Camera": "A", "Camera_Resolution": "2 to 4 feet", "Film_Type": "6", "Generation": "2", "Polarity": "Negative", "Operations_Number": "109", "Download_Available": "", "Center_Latitude": "15&deg;43'40.80\"N", "Center_Longitude": "48&deg;03'36\"E", "NW_Corner_Lat": "16&deg;00'57.60\"N", "NW_Corner_Long": "46&deg;22'22.80\"E", "NE_Corner_Lat": "15&deg;40'19.20\"N", "NE_Corner_Long": "49&deg;46'30\"E", "SE_Corner_Lat": "15&deg;26'38.40\"N", "SE_Corner_Long": "49&deg;42'21.60\"E", "SW_Corner_Lat": "15&deg;46'37.20\"N", "SW_Corner_Long": "46&deg;23'42\"E", "Center_Latitude_dec": "15.728", "Center_Longitude_dec": "48.06", "NW_Corner_Lat_dec": "16.016", "NW_Corner_Long_dec": "46.373", "NE_Corner_Lat_dec": "15.672", "NE_Corner_Long_dec": "49.775", "SE_Corner_Lat_dec": "15.444", "SE_Corner_Long_dec": "49.706", "SW_Corner_Lat_dec": "15.777", "SW_Corner_Long_dec": "46.395", "KML_STYLE": "PolyStyle00", "KML_FOLDER": "_Polygons_", "Snippet": "D3C1217-100109A076" }, "geometry": { "type": "Polygon", "coordinates": [ [ [ 46.395, 15.777 ], [ 49.706, 15.444 ], [ 49.775, 15.672 ], [ 46.373, 16.016 ], [ 46.395, 15.777 ] ] ] } },
{ "type": "Feature", "properties": { "Entity_ID": "D3C1217-100109A077", "Acquisition_Date": "1982\/05\/23", "Mission": "1217-1", "Frame_Number": "77", "Image_Type": "Black and White", "Camera": "A", "Camera_Resolution": "2 to 4 feet", "Film_Type": "6", "Generation": "2", "Polarity": "Negative", "Operations_Number": "109", "Download_Available": "", "Center_Latitude": "15&deg;34'22.80\"N", "Center_Longitude": "48&deg;01'48\"E", "NW_Corner_Lat": "15&deg;51'39.60\"N", "NW_Corner_Long": "46&deg;20'42\"E", "NE_Corner_Lat": "15&deg;31'01.20\"N", "NE_Corner_Long": "49&deg;44'45.60\"E", "SE_Corner_Lat": "15&deg;17'20.40\"N", "SE_Corner_Long": "49&deg;40'37.20\"E", "SW_Corner_Lat": "15&deg;37'15.60\"N", "SW_Corner_Long": "46&deg;22'01.20\"E", "Center_Latitude_dec": "15.573", "Center_Longitude_dec": "48.03", "NW_Corner_Lat_dec": "15.861", "NW_Corner_Long_dec": "46.345", "NE_Corner_Lat_dec": "15.517", "NE_Corner_Long_dec": "49.746", "SE_Corner_Lat_dec": "15.289", "SE_Corner_Long_dec": "49.677", "SW_Corner_Lat_dec": "15.621", "SW_Corner_Long_dec": "46.367", "KML_STYLE": "PolyStyle00", "KML_FOLDER": "_Polygons_", "Snippet": "D3C1217-100109A077" }, "geometry": { "type": "Polygon", "coordinates": [ [ [ 46.367, 15.621 ], [ 49.677, 15.289 ], [ 49.746, 15.517 ], [ 46.345, 15.861 ], [ 46.367, 15.621 ] ] ] } },
{ "type": "Feature", "properties": { "Entity_ID": "D3C1217-100109A078", "Acquisition_Date": "1982\/05\/23", "Mission": "1217-1", "Frame_Number": "78", "Image_Type": "Black and White", "Camera": "A", "Camera_Resolution": "2 to 4 feet", "Film_Type": "6", "Generation": "2", "Polarity": "Negative", "Operations_Number": "109", "Download_Available": "", "Center_Latitude": "15&deg;25'01.20\"N", "Center_Longitude": "48&deg;00'10.80\"E", "NW_Corner_Lat": "15&deg;42'18\"N", "NW_Corner_Long": "46&deg;19'04.80\"E", "NE_Corner_Lat": "15&deg;21'39.60\"N", "NE_Corner_Long": "49&deg;43'01.20\"E", "SE_Corner_Lat": "15&deg;07'58.80\"N", "SE_Corner_Long": "49&deg;38'52.80\"E", "SW_Corner_Lat": "15&deg;27'57.60\"N", "SW_Corner_Long": "46&deg;20'20.40\"E", "Center_Latitude_dec": "15.417", "Center_Longitude_dec": "48.003", "NW_Corner_Lat_dec": "15.705", "NW_Corner_Long_dec": "46.318", "NE_Corner_Lat_dec": "15.361", "NE_Corner_Long_dec": "49.717", "SE_Corner_Lat_dec": "15.133", "SE_Corner_Long_dec": "49.648", "SW_Corner_Lat_dec": "15.466", "SW_Corner_Long_dec": "46.339", "KML_STYLE": "PolyStyle00", "KML_FOLDER": "_Polygons_", "Snippet": "D3C1217-100109A078" }, "geometry": { "type": "Polygon", "coordinates": [ [ [ 46.339, 15.466 ], [ 49.648, 15.133 ], [ 49.717, 15.361 ], [ 46.318, 15.705 ], [ 46.339, 15.466 ] ] ] } },
{ "type": "Feature", "properties": { "Entity_ID": "D3C1217-100109A079", "Acquisition_Date": "1982\/05\/23", "Mission": "1217-1", "Frame_Number": "79", "Image_Type": "Black and White", "Camera": "A", "Camera_Resolution": "2 to 4 feet", "Film_Type": "6", "Generation": "2", "Polarity": "Negative", "Operations_Number": "109", "Download_Available": "1", "Center_Latitude": "15&deg;15'39.60\"N", "Center_Longitude": "47&deg;58'30\"E", "NW_Corner_Lat": "15&deg;33'00\"N", "NW_Corner_Long": "46&deg;17'24\"E", "NE_Corner_Lat": "15&deg;12'21.60\"N", "NE_Corner_Long": "49&deg;41'16.80\"E", "SE_Corner_Lat": "14&deg;58'37.20\"N", "SE_Corner_Long": "49&deg;37'08.40\"E", "SW_Corner_Lat": "15&deg;18'36\"N", "SW_Corner_Long": "46&deg;18'43.20\"E", "Center_Latitude_dec": "15.261", "Center_Longitude_dec": "47.975", "NW_Corner_Lat_dec": "15.55", "NW_Corner_Long_dec": "46.29", "NE_Corner_Lat_dec": "15.206", "NE_Corner_Long_dec": "49.688", "SE_Corner_Lat_dec": "14.977", "SE_Corner_Long_dec": "49.619", "SW_Corner_Lat_dec": "15.31", "SW_Corner_Long_dec": "46.312", "KML_STYLE": "PolyStyle00", "KML_FOLDER": "_Polygons_", "Snippet": "D3C1217-100109A079" }, "geometry": { "type": "Polygon", "coordinates": [ [ [ 46.312, 15.31 ], [ 49.619, 14.977 ], [ 49.688, 15.206 ], [ 46.29, 15.55 ], [ 46.312, 15.31 ] ] ] } },
{ "type": "Feature", "properties": { "Entity_ID": "D3C1217-100109A080", "Acquisition_Date": "1982\/05\/23", "Mission": "1217-1", "Frame_Number": "80", "Image_Type": "Black and White", "Camera": "A", "Camera_Resolution": "2 to 4 feet", "Film_Type": "6", "Generation": "2", "Polarity": "Negative", "Operations_Number": "109", "Download_Available": "1", "Center_Latitude": "15&deg;06'21.60\"N", "Center_Longitude": "47&deg;56'42\"E", "NW_Corner_Lat": "15&deg;23'38.40\"N", "NW_Corner_Long": "46&deg;15'43.20\"E", "NE_Corner_Lat": "15&deg;03'00\"N", "NE_Corner_Long": "49&deg;39'32.40\"E", "SE_Corner_Lat": "14&deg;49'19.20\"N", "SE_Corner_Long": "49&deg;35'24\"E", "SW_Corner_Lat": "15&deg;09'14.40\"N", "SW_Corner_Long": "46&deg;17'02.40\"E", "Center_Latitude_dec": "15.106", "Center_Longitude_dec": "47.945", "NW_Corner_Lat_dec": "15.394", "NW_Corner_Long_dec": "46.262", "NE_Corner_Lat_dec": "15.05", "NE_Corner_Long_dec": "49.659", "SE_Corner_Lat_dec": "14.822", "SE_Corner_Long_dec": "49.59", "SW_Corner_Lat_dec": "15.154", "SW_Corner_Long_dec": "46.284", "KML_STYLE": "PolyStyle00", "KML_FOLDER": "_Polygons_", "Snippet": "D3C1217-100109A080" }, "geometry": { "type": "Polygon", "coordinates": [ [ [ 46.284, 15.154 ], [ 49.59, 14.822 ], [ 49.659, 15.05 ], [ 46.262, 15.394 ], [ 46.284, 15.154 ] ] ] } },
{ "type": "Feature", "properties": { "Entity_ID": "D3C1217-100109A081", "Acquisition_Date": "1982\/05\/23", "Mission": "1217-1", "Frame_Number": "81", "Image_Type": "Black and White", "Camera": "A", "Camera_Resolution": "2 to 4 feet", "Film_Type": "6", "Generation": "2", "Polarity": "Negative", "Operations_Number": "109", "Download_Available": "1", "Center_Latitude": "14&deg;57'00\"N", "Center_Longitude": "47&deg;55'04.80\"E", "NW_Corner_Lat": "15&deg;14'16.80\"N", "NW_Corner_Long": "46&deg;14'06\"E", "NE_Corner_Lat": "14&deg;53'38.40\"N", "NE_Corner_Long": "49&deg;37'51.60\"E", "SE_Corner_Lat": "14&deg;39'57.60\"N", "SE_Corner_Long": "49&deg;33'39.60\"E", "SW_Corner_Lat": "14&deg;59'52.80\"N", "SW_Corner_Long": "46&deg;15'25.20\"E", "Center_Latitude_dec": "14.95", "Center_Longitude_dec": "47.918", "NW_Corner_Lat_dec": "15.238", "NW_Corner_Long_dec": "46.235", "NE_Corner_Lat_dec": "14.894", "NE_Corner_Long_dec": "49.631", "SE_Corner_Lat_dec": "14.666", "SE_Corner_Long_dec": "49.561", "SW_Corner_Lat_dec": "14.998", "SW_Corner_Long_dec": "46.257", "KML_STYLE": "PolyStyle00", "KML_FOLDER": "_Polygons_", "Snippet": "D3C1217-100109A081" }, "geometry": { "type": "Polygon", "coordinates": [ [ [ 46.257, 14.998 ], [ 49.561, 14.666 ], [ 49.631, 14.894 ], [ 46.235, 15.238 ], [ 46.257, 14.998 ] ] ] } },
{ "type": "Feature", "properties": { "Entity_ID": "D3C1217-100109A082", "Acquisition_Date": "1982\/05\/23", "Mission": "1217-1", "Frame_Number": "82", "Image_Type": "Black and White", "Camera": "A", "Camera_Resolution": "2 to 4 feet", "Film_Type": "6", "Generation": "2", "Polarity": "Negative", "Operations_Number": "109", "Download_Available": "1", "Center_Latitude": "14&deg;47'42\"N", "Center_Longitude": "47&deg;53'20.40\"E", "NW_Corner_Lat": "15&deg;04'58.80\"N", "NW_Corner_Long": "46&deg;12'25.20\"E", "NE_Corner_Lat": "14&deg;44'20.40\"N", "NE_Corner_Long": "49&deg;36'07.20\"E", "SE_Corner_Lat": "14&deg;30'39.60\"N", "SE_Corner_Long": "49&deg;31'58.80\"E", "SW_Corner_Lat": "14&deg;50'34.80\"N", "SW_Corner_Long": "46&deg;13'44.40\"E", "Center_Latitude_dec": "14.795", "Center_Longitude_dec": "47.889", "NW_Corner_Lat_dec": "15.083", "NW_Corner_Long_dec": "46.207", "NE_Corner_Lat_dec": "14.739", "NE_Corner_Long_dec": "49.602", "SE_Corner_Lat_dec": "14.511", "SE_Corner_Long_dec": "49.533", "SW_Corner_Lat_dec": "14.843", "SW_Corner_Long_dec": "46.229", "KML_STYLE": "PolyStyle00", "KML_FOLDER": "_Polygons_", "Snippet": "D3C1217-100109A082" }, "geometry": { "type": "Polygon", "coordinates": [ [ [ 46.229, 14.843 ], [ 49.533, 14.511 ], [ 49.602, 14.739 ], [ 46.207, 15.083 ], [ 46.229, 14.843 ] ] ] } },
{ "type": "Feature", "properties": { "Entity_ID": "D3C1217-100109A083", "Acquisition_Date": "1982\/05\/23", "Mission": "1217-1", "Frame_Number": "83", "Image_Type": "Black and White", "Camera": "A", "Camera_Resolution": "2 to 4 feet", "Film_Type": "6", "Generation": "2", "Polarity": "Negative", "Operations_Number": "109", "Download_Available": "1", "Center_Latitude": "14&deg;38'20.40\"N", "Center_Longitude": "47&deg;51'46.80\"E", "NW_Corner_Lat": "14&deg;55'37.20\"N", "NW_Corner_Long": "46&deg;10'48\"E", "NE_Corner_Lat": "14&deg;35'02.40\"N", "NE_Corner_Long": "49&deg;34'26.40\"E", "SE_Corner_Lat": "14&deg;21'18\"N", "SE_Corner_Long": "49&deg;30'18\"E", "SW_Corner_Lat": "14&deg;41'13.20\"N", "SW_Corner_Long": "46&deg;12'07.20\"E", "Center_Latitude_dec": "14.639", "Center_Longitude_dec": "47.863", "NW_Corner_Lat_dec": "14.927", "NW_Corner_Long_dec": "46.18", "NE_Corner_Lat_dec": "14.584", "NE_Corner_Long_dec": "49.574", "SE_Corner_Lat_dec": "14.355", "SE_Corner_Long_dec": "49.505", "SW_Corner_Lat_dec": "14.687", "SW_Corner_Long_dec": "46.202", "KML_STYLE": "PolyStyle00", "KML_FOLDER": "_Polygons_", "Snippet": "D3C1217-100109A083" }, "geometry": { "type": "Polygon", "coordinates": [ [ [ 46.202, 14.687 ], [ 49.505, 14.355 ], [ 49.574, 14.584 ], [ 46.18, 14.927 ], [ 46.202, 14.687 ] ] ] } },
{ "type": "Feature", "properties": { "Entity_ID": "D3C1217-100109A084", "Acquisition_Date": "1982\/05\/23", "Mission": "1217-1", "Frame_Number": "84", "Image_Type": "Black and White", "Camera": "A", "Camera_Resolution": "2 to 4 feet", "Film_Type": "6", "Generation": "2", "Polarity": "Negative", "Operations_Number": "109", "Download_Available": "1", "Center_Latitude": "14&deg;28'58.80\"N", "Center_Longitude": "47&deg;50'06\"E", "NW_Corner_Lat": "14&deg;46'15.60\"N", "NW_Corner_Long": "46&deg;09'10.80\"E", "NE_Corner_Lat": "14&deg;25'40.80\"N", "NE_Corner_Long": "49&deg;32'42\"E", "SE_Corner_Lat": "14&deg;11'56.40\"N", "SE_Corner_Long": "49&deg;28'33.60\"E", "SW_Corner_Lat": "14&deg;31'51.60\"N", "SW_Corner_Long": "46&deg;10'30\"E", "Center_Latitude_dec": "14.483", "Center_Longitude_dec": "47.835", "NW_Corner_Lat_dec": "14.771", "NW_Corner_Long_dec": "46.153", "NE_Corner_Lat_dec": "14.428", "NE_Corner_Long_dec": "49.545", "SE_Corner_Lat_dec": "14.199", "SE_Corner_Long_dec": "49.476", "SW_Corner_Lat_dec": "14.531", "SW_Corner_Long_dec": "46.175", "KML_STYLE": "PolyStyle00", "KML_FOLDER": "_Polygons_", "Snippet": "D3C1217-100109A084" }, "geometry": { "type": "Polygon", "coordinates": [ [ [ 46.175, 14.531 ], [ 49.476, 14.199 ], [ 49.545, 14.428 ], [ 46.153, 14.771 ], [ 46.175, 14.531 ] ] ] } },
{ "type": "Feature", "properties": { "Entity_ID": "D3C1217-100109A085", "Acquisition_Date": "1982\/05\/23", "Mission": "1217-1", "Frame_Number": "85", "Image_Type": "Black and White", "Camera": "A", "Camera_Resolution": "2 to 4 feet", "Film_Type": "6", "Generation": "2", "Polarity": "Negative", "Operations_Number": "109", "Download_Available": "1", "Center_Latitude": "14&deg;19'37.20\"N", "Center_Longitude": "47&deg;48'25.20\"E", "NW_Corner_Lat": "14&deg;36'54\"N", "NW_Corner_Long": "46&deg;07'33.60\"E", "NE_Corner_Lat": "14&deg;16'22.80\"N", "NE_Corner_Long": "49&deg;31'01.20\"E", "SE_Corner_Lat": "14&deg;02'38.40\"N", "SE_Corner_Long": "49&deg;26'52.80\"E", "SW_Corner_Lat": "14&deg;22'30\"N", "SW_Corner_Long": "46&deg;08'49.20\"E", "Center_Latitude_dec": "14.327", "Center_Longitude_dec": "47.807", "NW_Corner_Lat_dec": "14.615", "NW_Corner_Long_dec": "46.126", "NE_Corner_Lat_dec": "14.273", "NE_Corner_Long_dec": "49.517", "SE_Corner_Lat_dec": "14.044", "SE_Corner_Long_dec": "49.448", "SW_Corner_Lat_dec": "14.375", "SW_Corner_Long_dec": "46.147", "KML_STYLE": "PolyStyle00", "KML_FOLDER": "_Polygons_", "Snippet": "D3C1217-100109A085" }, "geometry": { "type": "Polygon", "coordinates": [ [ [ 46.147, 14.375 ], [ 49.448, 14.044 ], [ 49.517, 14.273 ], [ 46.126, 14.615 ], [ 46.147, 14.375 ] ] ] } },
{ "type": "Feature", "properties": { "Entity_ID": "D3C1217-100109A086", "Acquisition_Date": "1982\/05\/23", "Mission": "1217-1", "Frame_Number": "86", "Image_Type": "Black and White", "Camera": "A", "Camera_Resolution": "2 to 4 feet", "Film_Type": "6", "Generation": "2", "Polarity": "Negative", "Operations_Number": "109", "Download_Available": "1", "Center_Latitude": "14&deg;10'15.60\"N", "Center_Longitude": "47&deg;46'40.80\"E", "NW_Corner_Lat": "14&deg;27'32.40\"N", "NW_Corner_Long": "46&deg;05'52.80\"E", "NE_Corner_Lat": "14&deg;06'57.60\"N", "NE_Corner_Long": "49&deg;29'16.80\"E", "SE_Corner_Lat": "13&deg;53'13.20\"N", "SE_Corner_Long": "49&deg;25'08.40\"E", "SW_Corner_Lat": "14&deg;13'04.80\"N", "SW_Corner_Long": "46&deg;07'12\"E", "Center_Latitude_dec": "14.171", "Center_Longitude_dec": "47.778", "NW_Corner_Lat_dec": "14.459", "NW_Corner_Long_dec": "46.098", "NE_Corner_Lat_dec": "14.116", "NE_Corner_Long_dec": "49.488", "SE_Corner_Lat_dec": "13.887", "SE_Corner_Long_dec": "49.419", "SW_Corner_Lat_dec": "14.218", "SW_Corner_Long_dec": "46.12", "KML_STYLE": "PolyStyle00", "KML_FOLDER": "_Polygons_", "Snippet": "D3C1217-100109A086" }, "geometry": { "type": "Polygon", "coordinates": [ [ [ 46.12, 14.218 ], [ 49.419, 13.887 ], [ 49.488, 14.116 ], [ 46.098, 14.459 ], [ 46.12, 14.218 ] ] ] } },
{ "type": "Feature", "properties": { "Entity_ID": "D3C1217-100109A087", "Acquisition_Date": "1982\/05\/23", "Mission": "1217-1", "Frame_Number": "87", "Image_Type": "Black and White", "Camera": "A", "Camera_Resolution": "2 to 4 feet", "Film_Type": "6", "Generation": "2", "Polarity": "Negative", "Operations_Number": "109", "Download_Available": "1", "Center_Latitude": "14&deg;00'46.80\"N", "Center_Longitude": "47&deg;45'03.60\"E", "NW_Corner_Lat": "14&deg;18'03.60\"N", "NW_Corner_Long": "46&deg;04'12\"E", "NE_Corner_Lat": "13&deg;57'32.40\"N", "NE_Corner_Long": "49&deg;27'36\"E", "SE_Corner_Lat": "13&deg;43'48\"N", "SE_Corner_Long": "49&deg;23'27.60\"E", "SW_Corner_Lat": "14&deg;03'39.60\"N", "SW_Corner_Long": "46&deg;05'31.20\"E", "Center_Latitude_dec": "14.013", "Center_Longitude_dec": "47.751", "NW_Corner_Lat_dec": "14.301", "NW_Corner_Long_dec": "46.07", "NE_Corner_Lat_dec": "13.959", "NE_Corner_Long_dec": "49.46", "SE_Corner_Lat_dec": "13.73", "SE_Corner_Long_dec": "49.391", "SW_Corner_Lat_dec": "14.061", "SW_Corner_Long_dec": "46.092", "KML_STYLE": "PolyStyle00", "KML_FOLDER": "_Polygons_", "Snippet": "D3C1217-100109A087" }, "geometry": { "type": "Polygon", "coordinates": [ [ [ 46.092, 14.061 ], [ 49.391, 13.73 ], [ 49.46, 13.959 ], [ 46.07, 14.301 ], [ 46.092, 14.061 ] ] ] } },
{ "type": "Feature", "properties": { "Entity_ID": "D3C1217-100109A088", "Acquisition_Date": "1982\/05\/23", "Mission": "1217-1", "Frame_Number": "88", "Image_Type": "Black and White", "Camera": "A", "Camera_Resolution": "2 to 4 feet", "Film_Type": "6", "Generation": "2", "Polarity": "Negative", "Operations_Number": "109", "Download_Available": "1", "Center_Latitude": "13&deg;51'21.60\"N", "Center_Longitude": "47&deg;43'22.80\"E", "NW_Corner_Lat": "14&deg;08'38.40\"N", "NW_Corner_Long": "46&deg;02'34.80\"E", "NE_Corner_Lat": "13&deg;48'07.20\"N", "NE_Corner_Long": "49&deg;25'51.60\"E", "SE_Corner_Lat": "13&deg;34'22.80\"N", "SE_Corner_Long": "49&deg;21'43.20\"E", "SW_Corner_Lat": "13&deg;54'14.40\"N", "SW_Corner_Long": "46&deg;03'50.40\"E", "Center_Latitude_dec": "13.856", "Center_Longitude_dec": "47.723", "NW_Corner_Lat_dec": "14.144", "NW_Corner_Long_dec": "46.043", "NE_Corner_Lat_dec": "13.802", "NE_Corner_Long_dec": "49.431", "SE_Corner_Lat_dec": "13.573", "SE_Corner_Long_dec": "49.362", "SW_Corner_Lat_dec": "13.904", "SW_Corner_Long_dec": "46.064", "KML_STYLE": "PolyStyle00", "KML_FOLDER": "_Polygons_", "Snippet": "D3C1217-100109A088" }, "geometry": { "type": "Polygon", "coordinates": [ [ [ 46.064, 13.904 ], [ 49.362, 13.573 ], [ 49.431, 13.802 ], [ 46.043, 14.144 ], [ 46.064, 13.904 ] ] ] } },
{ "type": "Feature", "properties": { "Entity_ID": "D3C1217-100109A089", "Acquisition_Date": "1982\/05\/23", "Mission": "1217-1", "Frame_Number": "89", "Image_Type": "Black and White", "Camera": "A", "Camera_Resolution": "2 to 4 feet", "Film_Type": "6", "Generation": "2", "Polarity": "Negative", "Operations_Number": "109", "Download_Available": "1", "Center_Latitude": "13&deg;41'56.40\"N", "Center_Longitude": "47&deg;41'42\"E", "NW_Corner_Lat": "13&deg;59'13.20\"N", "NW_Corner_Long": "46&deg;00'54\"E", "NE_Corner_Lat": "13&deg;38'42\"N", "NE_Corner_Long": "49&deg;24'10.80\"E", "SE_Corner_Lat": "13&deg;24'57.60\"N", "SE_Corner_Long": "49&deg;20'02.40\"E", "SW_Corner_Lat": "13&deg;44'49.20\"N", "SW_Corner_Long": "46&deg;02'09.60\"E", "Center_Latitude_dec": "13.699", "Center_Longitude_dec": "47.695", "NW_Corner_Lat_dec": "13.987", "NW_Corner_Long_dec": "46.015", "NE_Corner_Lat_dec": "13.645", "NE_Corner_Long_dec": "49.403", "SE_Corner_Lat_dec": "13.416", "SE_Corner_Long_dec": "49.334", "SW_Corner_Lat_dec": "13.747", "SW_Corner_Long_dec": "46.036", "KML_STYLE": "PolyStyle00", "KML_FOLDER": "_Polygons_", "Snippet": "D3C1217-100109A089" }, "geometry": { "type": "Polygon", "coordinates": [ [ [ 49.403, 13.645, -999999.0 ], [ 46.015, 13.987, -999999.0 ], [ 46.036, 13.747, -999999.0 ], [ 49.333999999999563, 13.4160000000001, -999999.0 ], [ 49.334, 13.4160000000001, -999999.0 ], [ 49.403, 13.645, -999999.0 ] ] ] } }
]
}
